#cP2022  3 14 18  0  0.00000000     576 d+D   IGb14 EXT AIUB
## 2201 151200.00000000   300.00000000 59652 0.7500000000000
+   76   G01G02G03G04G05G06G07G08G09G10G11G12G13G14G15G16G17
+        G18G19G20G21G22G23G24G25G26G27G28G29G30G31G32R01R02
+        R03R04R05R07R08R09R12R13R14R15R17R18R19R20R21R22R24
+        E01E02E03E04E05E07E08E10E11E12E13E14E15E18E19E21E24
+        E25E26E27E30E31E33E34E36  0  0  0  0  0  0  0  0  0
++         6  7  6  8  7  7  7  6  6  6  8  7  7  7  7  7  7
++         8  7  7  7  7  7  7  6  6  6  7  7  5  7  6  9  7
++         7  7  7  8  7  7  7  7  7  7  8  7  8  9  8  8  8
++         6  6  5  7  6  6  6  7  6  6  6  6  6  7  7  6  5
++         6  7  5  5  6  7  6  6  0  0  0  0  0  0  0  0  0
%c M  cc GPS ccc cccc cccc cccc cccc ccccc ccccc ccccc ccccc
%c cc cc ccc ccc cccc cccc cccc cccc ccccc ccccc ccccc ccccc
%f  1.2500000  1.025000000  0.00000000000  0.000000000000000
%f  0.0000000  0.000000000  0.00000000000  0.000000000000000
%i    0    0    0    0      0      0      0      0         0
%i    0    0    0    0      0      0      0      0         0
/* Center for Orbit Determination in Europe (CODE)          
/* Ultra-rapid GRE orbits starting year-day 22073 18 hour   
/* Observed/predicted: 25/23 hours (data used up to 074S)   
/* PCV:IGS14      OL/AL:FES2014b NONE     YN ORB:CoN CLK:BRD
*  2022  3 15 13 25  0.00000000
PG01 -20198.849856 -14039.564916 -10747.344615    408.364176
PG02   -542.105612  15594.466351  22144.498256   -652.273642
PG03 -12845.035603 -19929.829018  11979.805011   -164.594745
PG04 -11813.055847  -9798.845398  21688.441309   -183.458029
PG05   5001.276910  25848.504517   2651.474298    -74.758167
PG06 -17037.792482   7748.282842  18945.149979    232.194761
PG07 -25939.243334  -5277.983517  -3969.946836    316.115640
PG08  -2581.812302 -16951.525555 -20218.371739    -59.947458
PG09 -19509.649660   1090.375569  17935.540467   -349.625921
PG10  12917.127889  -8730.603265 -21314.542565   -347.682162
PG11  -1922.055528  15343.537209  21593.853568    -62.821026
PG12   9784.088174  22907.973138   9129.088106   -185.250072
PG13  -7007.853001  19181.493695 -17044.728132    277.271367
PG14 -13954.686733   7650.736641 -21260.183612    -94.062110
PG15   5603.612357  16705.160048 -20201.160971    -76.607300
PG16    872.036573 -25512.630792   6117.986557   -480.917895
PG17 -22172.903421  13558.320569  -5174.112545    587.530685
PG18  25682.461460   5240.623113  -4620.477993    219.283684
PG19 -20584.496192  16525.323357   1509.594765    131.335475
PG20    -81.357654  23765.725014  12108.703508    516.291128
PG21 -12456.463067 -15323.014952 -17398.888483    159.414476
PG22  18158.690940 -18663.899350   5103.928247    227.889582
PG23  15870.840736   3698.025100 -21002.012960     -7.006276
PG24  17468.209759  14730.445898 -14171.132619    267.798733
PG25  15608.054433  11726.308081  17847.771579    298.637559
PG26   7245.631946 -19207.128104  16599.890295    190.982883
PG27   8610.513559 -20835.143243 -13917.616209    154.716991
PG28 -10108.482103  16624.122940 -17667.470013    379.952538
PG29  18272.720612   1857.271150  19160.317628   -491.636860
PG30 -23749.500972   1408.001800 -11983.272446   -518.819342
PG31  15416.306624  -9359.478342  19521.512495   -169.032103
PG32  20431.414337 -16576.374079  -2639.691404    -85.272795
PR01   7978.189832   9434.469398 -22308.490293      7.242896
PR02  13709.718087 -11001.768807 -18410.267680    512.570093
PR03  10652.798214 -22887.963711  -3396.720627     53.166106
PR04   1892.547967 -21710.603706  13281.077751    132.036110
PR05  -7968.409817  -8620.182970  22658.710306     89.414678
PR07 -10472.849786  23122.130656   2805.583076     32.671004
PR08  -1772.841734  21722.188908 -13215.346028    -64.010634
PR09 -14651.321083  -1477.138429 -20834.588566     44.471014
PR12  18058.201094  16155.019309   8029.374378     17.444346
PR13  14990.248586   2720.587502  20438.625954    -19.482006
PR14   2418.240211 -13515.173212  21505.838771     75.403552
PR15 -10884.910277 -20914.392257   9746.739627     97.524705
PR17  15163.918311 -10370.583509 -17702.521700    509.727436
PR18  -2525.904757 -10163.794600 -23244.535116    110.361985
PR19 -17852.977916  -5678.378346 -17312.604000   -181.663037
PR20 -25255.037332   3487.180438   1436.024636    -66.778855
PR21 -13854.671586  10467.826146  18677.985596   -285.487336
PR22   3276.328708   9996.747447  23220.422465   -170.752675
PR24  25041.245913  -4398.987228  -2085.836553     84.484406
PE01 -18420.341020 -13790.283056 -18617.824183   -597.246045
PE02  18435.424096  13667.589573  18699.566984    286.403367
PE03  19112.692326   1903.781374 -22524.446938   -537.617735
PE04 -22694.694919  16185.868625   9967.570763   -985.051309
PE05   4212.187597  19246.371190 -22086.361827   -200.158765
PE07  12911.936165 -25141.012996   8819.277124   -648.573028
PE08  22523.625287 -16606.930232  -9659.354719   -495.530151
PE10 -18075.966583  10691.741659  20857.254686   -500.654634
PE11  -7218.306014  14943.854983  24507.230244   4223.922676
PE12 -25592.426235   4953.379530  14049.814401   4712.384202
PE13   7901.700853 -14690.979771 -24443.509145    427.298229
PE14  -1148.120301 -23264.340728 -22648.132692  -1779.021058
PE15  25637.731740  -4884.316005 -13944.551965    757.652223
PE18   5186.600644  14645.411993  17751.019137  -1681.397572
PE19 -17660.550345  -4285.889756  23373.791508  -1355.094351
PE21 -11976.829989 -26894.461915  -3030.979622   -722.668660
PE24  -2840.039622  24690.148549 -16117.604015   -506.670548
PE25  11825.921328  26999.931968   2769.338300   -566.880882
PE26 -15281.980924 -15773.838239 -19840.767819   -915.091598
PE27   1778.956255 -25334.753659  15188.656499   -253.684594
PE30  14926.826680  -7688.545572  24361.764892   -350.464760
PE31 -14358.281029   8896.827481 -24306.430175   -493.566177
PE33 -28184.330436  -7749.176551  -4711.335100   -458.547285
PE34  28253.165004   7583.493025   4517.303388   -506.873886
PE36  14325.498136  15804.273596  20522.067677   -345.626356
EOF
